{"fetched_at":"2026-03-30T06:02:59Z","count":15439,"tles":[{"name":"STARLINK-32941","line1":"1 63119U 25039R   26087.81887360  .00022177  00000+0  81218-3 0  9994","line2":"2 63119  42.9998 253.3766 0001392 273.1250  86.9442 15.27612213 61123","category":"Starlink"}]}